{"type":"FeatureCollection","features":[{"type":"Feature","properties":{},"geometry":{"coordinates":[[[114.77055902079962,-0.8154858404555796],[114.77607449150395,-0.8891980937318635],[114.92138815913529,-0.9045977853796643],[114.91258619317915,-0.8253458694976104],[114.83150486626866,-0.8221653770804025],[114.77055902079962,-0.8154858404555796]]],"type":"Polygon"}},{"type":"Feature","properties":{"id":"2_1","stroke":"#ff8800","stroke-width":2,"stroke-opacity":1,"fill":"#ff8800","fill-opacity":0.3,"region":"Additional Polygons"},"geometry":{"coordinates":[[[111.47278,-1.7529],[111.47209,-1.82823],[111.50951,-1.84298],[111.51157,-1.92379],[111.44281422574151,-1.9261859363281904],[111.44226451245659,-1.9623839995241614],[111.41836,-1.97783],[111.42231,-2.03204],[111.51913,-2.01901],[111.5181,-2.00082],[111.64719,-1.98006],[111.64684,-1.99842],[111.72049,-2.00048],[111.72924,-1.9123],[111.67173,-1.91281],[111.66967,-1.80644],[111.54745,-1.80438],[111.55552,-1.75359],[111.47278,-1.7529]]],"type":"Polygon"}},{"type":"Feature","properties":{},"geometry":{"coordinates":[[[111.13023101696558,-1.792758344961996],[111.1403434289088,-1.9388605239433048],[111.27504486186297,-1.9556604494450767],[111.34517552948142,-1.8782765983768996],[111.29719191076714,-1.7995727889427116],[111.24407730584522,-1.8782685528148022],[111.21847666815444,-1.6838601888304225],[111.05774900256654,-1.7061694604729212],[111.0769880521774,-1.7967876811018755],[111.13023101696558,-1.792758344961996]]],"type":"Polygon"}},{"type":"Feature","properties":{"id":"1_5","stroke":"#ff8800","stroke-width":2,"stroke-opacity":1,"fill":"#ff8800","fill-opacity":0.3,"region":"Additional Polygons"},"geometry":{"coordinates":[[[111.63747,-2.67215],[111.63917,-2.67522],[111.64215,-2.67395],[111.63975,-2.67088],[111.63747,-2.67215]]],"type":"Polygon"}},{"type":"Feature","properties":{"id":"1_3","stroke":"#ff8800","stroke-width":2,"stroke-opacity":1,"fill":"#ff8800","fill-opacity":0.3,"region":"Additional Polygons"},"geometry":{"coordinates":[[[111.62221,-2.55976],[111.62033,-2.60303],[111.65165,-2.63769],[111.70337,-2.63726],[111.73155,-2.67591],[111.75804,-2.65847],[111.69728,-2.56187],[111.62221,-2.55976]]],"type":"Polygon"}},{"type":"Feature","properties":{"id":"1_2","stroke":"#ff8800","stroke-width":2,"stroke-opacity":1,"fill":"#ff8800","fill-opacity":0.3,"region":"Additional Polygons"},"geometry":{"coordinates":[[[111.82868,-2.51207],[111.82938,-2.51861],[111.83541,-2.53384],[111.84952,-2.52971],[111.8419,-2.51195],[111.82868,-2.51207]]],"type":"Polygon"}},{"type":"Feature","properties":{"id":"1_1","stroke":"#ff8800","stroke-width":2,"stroke-opacity":1,"fill":"#ff8800","fill-opacity":0.3,"region":"Additional Polygons"},"geometry":{"coordinates":[[[111.51618,-2.46717],[111.61393,-2.46718],[111.66071,-2.3453],[111.87962,-2.20708],[111.855,-2.18924],[111.83247,-2.17126],[111.58106,-2.22821],[111.57889,-2.28852],[111.45233,-2.28459],[111.4474,-2.39601],[111.51618,-2.46717]]],"type":"Polygon"}},{"type":"Feature","properties":{"id":"3_1","stroke":"#ff8800","stroke-width":2,"stroke-opacity":1,"fill":"#ff8800","fill-opacity":0.3,"region":"Additional Polygons","OBJECTID":""},"geometry":{"coordinates":[[[114.03362,-2.96327],[114.07104,-2.96378],[114.08478,-2.9067],[114.13954,-2.98418],[114.05954,-2.98521],[114.03397,-3.02361],[114.04358,-3.09698],[114.13834,-3.134],[114.11293,-3.20668],[114.11156,-3.27386],[114.17301,-3.26323],[114.16409,-3.20496],[114.28802,-3.23204],[114.35017,-3.04487],[114.3148,-3.03115],[114.29867,-3.04315],[114.25575,-2.98487],[114.20116,-2.99653],[114.22657,-2.9379],[114.26262,-2.9067],[114.22863,-2.87241],[114.17267,-2.9043],[114.18228,-2.85561],[114.04976,-2.85698],[114.03362,-2.96327]]],"type":"Polygon"}},{"type":"Feature","properties":{},"geometry":{"coordinates":[[[111.63959791569567,-2.7261192712885105],[111.6390479132188,-2.7283464855959068],[111.64124792312805,-2.728183156687166],[111.64114386860615,-2.7263716891171583],[111.63959791569567,-2.7261192712885105]]],"type":"Polygon"}},{"type":"Feature","properties":{},"geometry":{"coordinates":[[[111.72004465713326,-2.7448298631229733],[111.7199953611032,-2.7456546240375133],[111.72071015355647,-2.745691553617192],[111.72062388550228,-2.7448667927281605],[111.72004465713326,-2.7448298631229733]]],"type":"Polygon"}},{"type":"Feature","properties":{},"geometry":{"coordinates":[[[111.62266792426266,-2.7210968543008676],[111.62486700433351,-2.7229315135694776],[111.62635388233628,-2.721496236147914],[111.6238424329369,-2.7196241325948733],[111.62266792426266,-2.7210968543008676]]],"type":"Polygon"}}]}